start=new Date('2022-11-02T00:00:00.000Z').valueOf();
sats=[{"BSTAR":"0.00030546000000","OBJECT_ID":"2020-074AZ","DECAY_DATE":null,"MEAN_MOTION_DOT":"0.00004271","ECCENTRICITY":"0.00013630","TLE_LINE2":"2 46786  53.0550  26.6137 0001363  91.4761 268.6384 15.06396625112607","REV_AT_EPOCH":"11260","MEAN_ELEMENT_THEORY":"SGP4","REF_FRAME":"TEME","EPOCH":"2022-11-01T15:17:36.106944","SEMIMAJOR_AXIS":"6925.359","GP_ID":"216682351","COUNTRY_CODE":"US","TLE_LINE1":"1 46786U 20074AZ  22305.63722346  .00004271  00000-0  30546-3 0  9994","MEAN_MOTION_DDOT":"0.0000000000000","NORAD_CAT_ID":"46786","PERIOD":"95.592","CENTER_NAME":"EARTH","FILE":"3640431","APOAPSIS":"548.168","TIME_SYSTEM":"UTC","ELEMENT_SET_NO":"999","CLASSIFICATION_TYPE":"U","EPHEMERIS_TYPE":"0","OBJECT_NAME":"STARLINK-1893","RCS_SIZE":"LARGE","MEAN_MOTION":"15.06396625","RA_OF_ASC_NODE":"26.6137","SITE":"AFETR","MEAN_ANOMALY":"268.6384","ARG_OF_PERICENTER":"91.4761","PERIAPSIS":"546.280","OBJECT_TYPE":"PAYLOAD","INCLINATION":"53.0550","LAUNCH_DATE":"2020-10-24"},{"OBJECT_NAME":"STARLINK-1899","RCS_SIZE":"LARGE","CLASSIFICATION_TYPE":"U","EPHEMERIS_TYPE":"0","TIME_SYSTEM":"UTC","ELEMENT_SET_NO":"999","APOAPSIS":"548.141","FILE":"3640409","NORAD_CAT_ID":"46787","PERIOD":"95.593","CENTER_NAME":"EARTH","LAUNCH_DATE":"2020-10-24","INCLINATION":"53.0576","OBJECT_TYPE":"PAYLOAD","ARG_OF_PERICENTER":"71.7512","PERIAPSIS":"546.325","MEAN_ANOMALY":"288.3620","SITE":"AFETR","MEAN_MOTION":"15.06393673","RA_OF_ASC_NODE":"27.2356","ECCENTRICITY":"0.00013110","MEAN_MOTION_DOT":"-0.00001066","DECAY_DATE":null,"OBJECT_ID":"2020-074BA","BSTAR":"-0.00005271500000","MEAN_MOTION_DDOT":"0.0000000000000","TLE_LINE1":"1 46787U 20074BA  22305.49715374 -.00001066  00000-0 -52715-4 0  9996","COUNTRY_CODE":"US","GP_ID":"216657360","SEMIMAJOR_AXIS":"6925.368","REF_FRAME":"TEME","EPOCH":"2022-11-01T11:55:54.083136","MEAN_ELEMENT_THEORY":"SGP4","TLE_LINE2":"2 46787  53.0576  27.2356 0001311  71.7512 288.3620 15.06393673112583","REV_AT_EPOCH":"11258"},{"MEAN_ELEMENT_THEORY":"SGP4","TLE_LINE2":"2 46788  53.0561  26.6660 0001590  62.4900 297.6250 15.06402444112608","REV_AT_EPOCH":"11260","COUNTRY_CODE":"US","TLE_LINE1":"1 46788U 20074BB  22305.62246380  .00001329  00000-0  10810-3 0  9997","MEAN_MOTION_DDOT":"0.0000000000000","REF_FRAME":"TEME","EPOCH":"2022-11-01T14:56:20.872320","GP_ID":"216683349","SEMIMAJOR_AXIS":"6925.341","OBJECT_ID":"2020-074BB","DECAY_DATE":null,"BSTAR":"0.00010810000000","MEAN_MOTION_DOT":"0.00001329","ECCENTRICITY":"0.00015900","MEAN_ANOMALY":"297.6250","MEAN_MOTION":"15.06402444","RA_OF_ASC_NODE":"26.6660","SITE":"AFETR","OBJECT_TYPE":"PAYLOAD","INCLINATION":"53.0561","LAUNCH_DATE":"2020-10-24","ARG_OF_PERICENTER":"62.4900","PERIAPSIS":"546.105","FILE":"3640431","APOAPSIS":"548.307","CENTER_NAME":"EARTH","PERIOD":"95.592","NORAD_CAT_ID":"46788","OBJECT_NAME":"STARLINK-1929","RCS_SIZE":"LARGE","ELEMENT_SET_NO":"999","TIME_SYSTEM":"UTC","CLASSIFICATION_TYPE":"U","EPHEMERIS_TYPE":"0"},{"OBJECT_ID":"2020-074BC","DECAY_DATE":null,"BSTAR":"-0.00000951140000","MEAN_MOTION_DOT":"-0.00000423","ECCENTRICITY":"0.00017320","MEAN_ELEMENT_THEORY":"SGP4","REV_AT_EPOCH":"11219","TLE_LINE2":"2 46789  53.0541  56.4383 0001732  65.6474 294.4695 15.06393662112192","COUNTRY_CODE":"US","MEAN_MOTION_DDOT":"0.0000000000000","TLE_LINE1":"1 46789U 20074BC  22305.71187744 -.00000423  00000-0 -95114-5 0  9994","EPOCH":"2022-11-01T17:05:06.210816","REF_FRAME":"TEME","SEMIMAJOR_AXIS":"6925.368","GP_ID":"216684099","FILE":"3640431","APOAPSIS":"548.432","CENTER_NAME":"EARTH","PERIOD":"95.593","NORAD_CAT_ID":"46789","RCS_SIZE":"LARGE","OBJECT_NAME":"STARLINK-1930","ELEMENT_SET_NO":"999","TIME_SYSTEM":"UTC","EPHEMERIS_TYPE":"0","CLASSIFICATION_TYPE":"U","MEAN_ANOMALY":"294.4695","RA_OF_ASC_NODE":"56.4383","MEAN_MOTION":"15.06393662","SITE":"AFETR","OBJECT_TYPE":"PAYLOAD","LAUNCH_DATE":"2020-10-24","INCLINATION":"53.0541","PERIAPSIS":"546.034","ARG_OF_PERICENTER":"65.6474"},{"PERIOD":"95.592","NORAD_CAT_ID":"46790","CENTER_NAME":"EARTH","FILE":"3640431","APOAPSIS":"548.143","TIME_SYSTEM":"UTC","ELEMENT_SET_NO":"999","EPHEMERIS_TYPE":"0","CLASSIFICATION_TYPE":"U","RCS_SIZE":"LARGE","OBJECT_NAME":"STARLINK-1931","RA_OF_ASC_NODE":"56.7338","MEAN_MOTION":"15.06398878","SITE":"AFETR","MEAN_ANOMALY":"264.2708","PERIAPSIS":"546.291","ARG_OF_PERICENTER":"95.8433","OBJECT_TYPE":"PAYLOAD","INCLINATION":"53.0544","LAUNCH_DATE":"2020-10-24","BSTAR":"0.00014979000000","OBJECT_ID":"2020-074BD","DECAY_DATE":null,"MEAN_MOTION_DOT":"0.00001950","ECCENTRICITY":"0.00013370","REV_AT_EPOCH":"11217","TLE_LINE2":"2 46790  53.0544  56.7338 0001337  95.8433 264.2708 15.06398878112173","MEAN_ELEMENT_THEORY":"SGP4","EPOCH":"2022-11-01T14:36:27.023040","REF_FRAME":"TEME","GP_ID":"216681852","SEMIMAJOR_AXIS":"6925.352","COUNTRY_CODE":"US","TLE_LINE1":"1 46790U 20074BD  22305.60864610  .00001950  00000-0  14979-3 0  9990","MEAN_MOTION_DDOT":"0.0000000000000"},{"PERIOD":"95.593","CENTER_NAME":"EARTH","NORAD_CAT_ID":"46791","FILE":"3640431","APOAPSIS":"548.162","ELEMENT_SET_NO":"999","TIME_SYSTEM":"UTC","CLASSIFICATION_TYPE":"U","EPHEMERIS_TYPE":"0","OBJECT_NAME":"STARLINK-1933","RCS_SIZE":"LARGE","MEAN_MOTION":"15.06389614","RA_OF_ASC_NODE":"56.0748","SITE":"AFETR","MEAN_ANOMALY":"255.6995","ARG_OF_PERICENTER":"104.4141","PERIAPSIS":"546.329","OBJECT_TYPE":"PAYLOAD","LAUNCH_DATE":"2020-10-24","INCLINATION":"53.0558","BSTAR":"0.00017941000000","OBJECT_ID":"2020-074BE","DECAY_DATE":null,"MEAN_MOTION_DOT":"0.00002391","ECCENTRICITY":"0.00013230","TLE_LINE2":"2 46791  53.0558  56.0748 0001323 104.4141 255.6995 15.06389614112209","REV_AT_EPOCH":"11220","MEAN_ELEMENT_THEORY":"SGP4","REF_FRAME":"TEME","EPOCH":"2022-11-01T18:08:45.694752","GP_ID":"216682602","SEMIMAJOR_AXIS":"6925.380","COUNTRY_CODE":"US","TLE_LINE1":"1 46791U 20074BE  22305.75608443  .00002391  00000-0  17941-3 0  9999","MEAN_MOTION_DDOT":"0.0000000000000"},{"COUNTRY_CODE":"US","TLE_LINE1":"1 46792U 20074BF  22305.65011625  .00001168  00000-0  97328-4 0  9998","MEAN_MOTION_DDOT":"0.0000000000000","REF_FRAME":"TEME","EPOCH":"2022-11-01T15:36:10.044000","GP_ID":"216682850","SEMIMAJOR_AXIS":"6925.366","MEAN_ELEMENT_THEORY":"SGP4","TLE_LINE2":"2 46792  53.0572  46.5541 0001427  88.0030 272.1123 15.06394186112320","REV_AT_EPOCH":"11232","MEAN_MOTION_DOT":"0.00001168","ECCENTRICITY":"0.00014270","OBJECT_ID":"2020-074BF","DECAY_DATE":null,"BSTAR":"0.00009732800000","OBJECT_TYPE":"PAYLOAD","LAUNCH_DATE":"2020-10-24","INCLINATION":"53.0572","ARG_OF_PERICENTER":"88.0030","PERIAPSIS":"546.243","MEAN_ANOMALY":"272.1123","MEAN_MOTION":"15.06394186","RA_OF_ASC_NODE":"46.5541","SITE":"AFETR","OBJECT_NAME":"STARLINK-1934","RCS_SIZE":"LARGE","ELEMENT_SET_NO":"999","TIME_SYSTEM":"UTC","CLASSIFICATION_TYPE":"U","EPHEMERIS_TYPE":"0","FILE":"3640431","APOAPSIS":"548.220","PERIOD":"95.593","NORAD_CAT_ID":"46792","CENTER_NAME":"EARTH"},{"MEAN_MOTION_DDOT":"0.0000000000000","TLE_LINE1":"1 46793U 20074BG  22305.67868263 -.00000054  00000-0  15285-4 0  9995","COUNTRY_CODE":"US","SEMIMAJOR_AXIS":"6925.360","GP_ID":"216683599","REF_FRAME":"TEME","EPOCH":"2022-11-01T16:17:18.179232","MEAN_ELEMENT_THEORY":"SGP4","TLE_LINE2":"2 46793  53.0566  56.4292 0001129  86.4549 273.6569 15.06396255112186","REV_AT_EPOCH":"11218","ECCENTRICITY":"0.00011290","MEAN_MOTION_DOT":"-0.00000054","DECAY_DATE":null,"OBJECT_ID":"2020-074BG","BSTAR":"0.00001528500000","LAUNCH_DATE":"2020-10-24","INCLINATION":"53.0566","OBJECT_TYPE":"PAYLOAD","ARG_OF_PERICENTER":"86.4549","PERIAPSIS":"546.443","MEAN_ANOMALY":"273.6569","SITE":"AFETR","MEAN_MOTION":"15.06396255","RA_OF_ASC_NODE":"56.4292","OBJECT_NAME":"STARLINK-1941","RCS_SIZE":"LARGE","CLASSIFICATION_TYPE":"U","EPHEMERIS_TYPE":"0","ELEMENT_SET_NO":"999","TIME_SYSTEM":"UTC","APOAPSIS":"548.007","FILE":"3640431","PERIOD":"95.592","CENTER_NAME":"EARTH","NORAD_CAT_ID":"46793"},{"MEAN_MOTION_DOT":"0.00002654","ECCENTRICITY":"0.00014650","BSTAR":"0.00019695000000","OBJECT_ID":"2020-074BH","DECAY_DATE":null,"EPOCH":"2022-11-01T18:03:27.643392","REF_FRAME":"TEME","GP_ID":"216683604","SEMIMAJOR_AXIS":"6925.338","COUNTRY_CODE":"US","MEAN_MOTION_DDOT":"0.0000000000000","TLE_LINE1":"1 46794U 20074BH  22305.75240328  .00002654  00000-0  19695-3 0  9996","REV_AT_EPOCH":"11220","TLE_LINE2":"2 46794  53.0549  56.0927 0001465  82.1813 277.9343 15.06403313112203","MEAN_ELEMENT_THEORY":"SGP4","ELEMENT_SET_NO":"999","TIME_SYSTEM":"UTC","EPHEMERIS_TYPE":"0","CLASSIFICATION_TYPE":"U","RCS_SIZE":"LARGE","OBJECT_NAME":"STARLINK-1942","PERIOD":"95.592","CENTER_NAME":"EARTH","NORAD_CAT_ID":"46794","FILE":"3640431","APOAPSIS":"548.218","PERIAPSIS":"546.189","ARG_OF_PERICENTER":"82.1813","OBJECT_TYPE":"PAYLOAD","INCLINATION":"53.0549","LAUNCH_DATE":"2020-10-24","RA_OF_ASC_NODE":"56.0927","MEAN_MOTION":"15.06403313","SITE":"AFETR","MEAN_ANOMALY":"277.9343"},{"ECCENTRICITY":"0.00009760","MEAN_MOTION_DOT":"-0.00000306","DECAY_DATE":null,"OBJECT_ID":"2020-074BK","BSTAR":"-0.00000167180000","TLE_LINE1":"1 46796U 20074BK  22305.39578485 -.00000306  00000-0 -16718-5 0  9995","MEAN_MOTION_DDOT":"0.0000000000000","COUNTRY_CODE":"US","GP_ID":"216658113","SEMIMAJOR_AXIS":"6925.349","REF_FRAME":"TEME","EPOCH":"2022-11-01T09:29:55.811040","MEAN_ELEMENT_THEORY":"SGP4","TLE_LINE2":"2 46796  53.0571  47.6969 0000976  98.9783 261.1316 15.06399820112289","REV_AT_EPOCH":"11228","OBJECT_NAME":"STARLINK-1944","RCS_SIZE":"LARGE","CLASSIFICATION_TYPE":"U","EPHEMERIS_TYPE":"0","TIME_SYSTEM":"UTC","ELEMENT_SET_NO":"999","APOAPSIS":"547.890","FILE":"3640409","PERIOD":"95.592","CENTER_NAME":"EARTH","NORAD_CAT_ID":"46796","LAUNCH_DATE":"2020-10-24","INCLINATION":"53.0571","OBJECT_TYPE":"PAYLOAD","ARG_OF_PERICENTER":"98.9783","PERIAPSIS":"546.538","MEAN_ANOMALY":"261.1316","SITE":"AFETR","MEAN_MOTION":"15.06399820","RA_OF_ASC_NODE":"47.6969"}];
